SARAL                   
1 39086U 13009A   22295.83279535  .00000099  00000+0  53180-4 0  9999
2 39086  98.5479 119.6017 0000229 141.0373 219.0827 14.32038747504712
GAOFEN 1                
1 39150U 13018A   22296.45044632  .00000696  00000+0  10731-3 0  9995
2 39150  98.0610   2.7310 0021194 229.5851 130.3483 14.76427562511627
VNREDSAT 1              
1 39160U 13021B   22296.47432713  .00000575  00000+0  12133-3 0  9997
2 39160  98.0680   9.1217 0001366  72.7105 287.4234 14.62981500505332
ARIRANG-5 (KOMPSAT-5)   
1 39227U 13042A   22296.02639311 -.00004905  00000+0 -34692-3 0  9995
2 39227  97.6301 120.1187 0000827  59.8239  56.3460 15.04455328503463
SKYSAT-A                
1 39418U 13066C   22296.45265607  .00001930  00000+0  15759-3 0  9999
2 39418  97.5361   4.4489 0029542 182.5128 177.5952 15.00232239487840
DUBAISAT-2              
1 39419U 13066D   22296.33478599  .00001163  00000+0  11014-3 0  9991
2 39419  97.4364 321.8438 0012658 203.2578 156.8081 14.95356281486303
GPM-CORE                
1 39574U 14009C   22295.89778654  .00014809  00000+0  21195-3 0  9998
2 39574  64.9984 114.5287 0007820 265.0521  94.9733 15.56388081491448
SENTINEL-1A             
1 39634U 14016A   22296.40771387  .00000029  00000+0  15864-4 0  9993
2 39634  98.1825 302.1493 0001289  88.0730 272.0601 14.59199436455685
KAZEOSAT 1              
1 39731U 14024A   22296.44028098  .00000202  00000+0  74900-4 0  9997
2 39731  98.4541  10.8018 0001352  86.8975 273.2371 14.42009959446538
ALOS-2                  
1 39766U 14029A   22296.43386235 -.00000125  00000+0 -98497-5 0  9993
2 39766  97.9221  31.7275 0001530  98.1264 262.0117 14.79470515454552
KAZEOSAT 2              
1 40010U 14033A   22296.44941383  .00000500  00000+0  69174-4 0  9998
2 40010  97.7022 177.0425 0015198  25.5893 334.6054 14.82091900451409
HODOYOSHI-4             
1 40011U 14033B   22296.48599143  .00000932  00000+0  12357-3 0  9995
2 40011  97.6563 164.3041 0027149  21.7530 338.4808 14.81864601451052
DEIMOS-2                
1 40013U 14033D   22296.42071065  .00000984  00000+0  11974-3 0  9990
2 40013  97.7434 190.1969 0002622  69.2612 290.8888 14.85595905452192
HODOYOSHI-3             
1 40015U 14033F   22295.79909067  .00000681  00000+0  97618-4 0  9997
2 40015  97.6261 143.3385 0037801  48.9696 311.4773 14.79050289450135
SPOT 7                  
1 40053U 14034A   22296.44008349  .00000309  00000+0  76161-4 0  9993
2 40053  98.1592   1.6882 0001109  84.0888 276.0438 14.58568852442743
SKYSAT-B                
1 40072U 14037D   22296.46514822  .00000754  00000+0  10267-3 0  9995
2 40072  98.3879 171.1851 0005035 264.8720  95.1917 14.81885685448287
WORLDVIEW-3 (WV-3)      
1 40115U 14048A   22296.19944060  .00000937  00000+0  11567-3 0  9993
2 40115  97.8441   9.2450 0002959 108.8409 251.3127 14.85140101444098
GAOFEN 2                
1 40118U 14049A   22296.43088349  .00000918  00000+0  12592-3 0  9991
2 40118  97.7488   0.6749 0005366 245.8263 114.2385 14.80708564442035
YAOGAN 21               
1 40143U 14053A   22296.62706905  .00006391  00000+0  26913-3 0  9993
2 40143  97.3377   1.2648 0016433 133.5346  24.2263 15.23575986452060
YAOGAN 22               
1 40275U 14063A   22296.27045368 -.00000008  00000+0  10000-3 0  9990
2 40275 100.5842  56.6062 0005811 319.5078  40.5599 13.15445159384558
ASNARO                  
1 40298U 14070A   22296.51477278  .00009159  00000+0  43560-3 0  9991
2 40298  97.4605  17.1608 0002357 173.5445 312.2521 15.19404139441647
HODOYOSHI-1             
1 40299U 14070B   22296.54849955  .00006154  00000+0  22575-3 0  9995
2 40299  97.2301   0.9041 0013103  48.0357  66.8033 15.28237529442614
QSAT-EOS                
1 40301U 14070D   22296.51899716  .00026063  00000+0  63710-3 0  9993
2 40301  97.1939   1.6120 0017683  12.2099 100.7022 15.40628699443188
YAOGAN 23               
1 40305U 14071A   22296.55626281  .00008309  00000+0  35524-3 0  9992
2 40305  97.6204 249.5643 0002634  82.4212  43.6436 15.23102462440043
YAOGAN 24               
1 40310U 14072A   22296.48335837  .00000820  00000+0  12545-3 0  9993
2 40310  97.9898  55.3551 0016489 220.8298 139.1659 14.76293882427123
CBERS 4                 
1 40336U 14079A   22296.46145057  .00000071  00000+0  39698-4 0  9996
2 40336  98.4726   8.0869 0001863  85.7176 274.4235 14.35432711412776
RESURS P2               
1 40360U 14087A   22296.53328339  .00006781  00000+0  18326-3 0  9994
2 40360  97.2007  18.9369 0008745 358.1272 126.4445 15.38016430437931
YAOGAN 26               
1 40362U 14088A   22296.57884558  .00006599  00000+0  27878-3 0  9990
2 40362  97.1329 340.1774 0008665  22.9717 102.1649 15.23528587435536
SMAP                    
1 40376U 15003A   22295.88236935  .00000451  00000+0  96371-4 0  9992
2 40376  98.1299 300.8284 0001859  92.9422 267.1992 14.63347721412625
KOMPSAT-3A              
1 40536U 15014A   22296.58422351  .00004384  00000+0  25425-3 0  9999
2 40536  97.5418 237.5431 0007049  38.4512 134.8009 15.12671108418406
SENTINEL-2A             
1 40697U 15028A   22296.23550338 -.00000401  00000+0 -13627-3 0  9990
2 40697  98.5650   9.1678 0001339  75.4577 284.6666 14.30819480383126
GAOFEN 8                
1 40701U 15030A   22296.59821987  .00008425  00000+0  35818-3 0  9997
2 40701  97.5788  72.2685 0001906 343.2726 149.8919 15.23288919407898
CARBONITE 1 (CBNT-1)    
1 40718U 15032D   22296.43132505  .00001115  00000+0  17028-3 0  9993
2 40718  97.7177 155.1138 0015881 325.3317  34.6823 14.75610756392294
YAOGAN 27               
1 40878U 15040A   22296.26265886 -.00000004  00000+0  10000-3 0  9999
2 40878 100.1206 322.6189 0008813  54.4590 305.7355 13.15982446343840
GAOFEN 9-01             
1 40894U 15047A   22296.42664194  .00000707  00000+0  10808-3 0  9992
2 40894  97.8050   2.5698 0033383 153.4488 206.8442 14.76393780383063
LAPAN-A2                
1 40931U 15052B   22296.49175572  .00001029  00000+0  53866-4 0  9994
2 40931   5.9969 335.6550 0012368 184.7930 175.2127 14.76894703382306
YAOGAN 28               
1 41026U 15064A   22296.59181777  .00006421  00000+0  27258-3 0  9994
2 41026  97.5719  80.3127 0006724 216.4792 208.7858 15.23420751387741
YAOGAN 29               
1 41038U 15069A   22296.38762426  .00000438  00000+0  63522-4 0  9992
2 41038  98.0621 297.2166 0002313  67.8985 292.2479 14.80962022373225
KENT RIDGE 1            
1 41167U 15077B   22296.49171300  .00002794  00000+0  12554-3 0  9996
2 41167  14.9792 355.5216 0010998 345.9602 130.5763 15.10424799378630
TELEOS 1                
1 41169U 15077D   22296.38837959  .00006196  00000+0  29330-3 0  9995
2 41169  14.9835 321.2350 0009168  44.3765 315.7300 15.14076034378932
GAOFEN 4                
1 41194U 15083A   22295.86056787 -.00000326  00000+0  00000+0 0  9993
2 41194   0.1052  98.3881 0002848 102.9334 245.4705  1.00269423 25146
JASON-3                 
1 41240U 16002A   22295.81803944 -.00000019  00000+0  18325-3 0  9999
2 41240  66.0444  24.5325 0007797 265.0704  94.9421 12.80929058316229
SENTINEL-3A             
1 41335U 16011A   22296.39821297  .00000108  00000+0  62778-4 0  9999
2 41335  98.6249   1.8502 0001110  94.4756 265.6551 14.26738752348011
ZIYUAN 3-2 (ZY 3-2)     
1 41556U 16033A   22296.46874686  .00007272  00000+0  33022-3 0  9994
2 41556  97.5248   5.1847 0002401 105.5575  15.4362 15.21084481355365
NUSAT-1 (FRESCO)        
1 41557U 16033B   22296.57331200  .00017894  00000+0  47705-3 0  9991
2 41557  97.3894  34.7637 0009150 277.4276 140.3923 15.38172802357053
NUSAT-2 (BATATA)        
1 41558U 16033C   22296.57377581  .00018036  00000+0  45215-3 0  9997
2 41558  97.4128  41.2000 0008772 265.1998 151.2962 15.40065192357348
CARTOSAT-2C             
1 41599U 16040A   22296.59220714  .00003593  00000+0  17358-3 0  9996
2 41599  97.4731 354.9709 0014533  95.0007  42.3054 15.19197752351380
SKYSAT-C1               
1 41601U 16040C   22296.38027010  .00012817  00000+0  34470-3 0  9994
2 41601  97.1446   8.5126 0001438 123.8646 236.2737 15.38010671353668
LAPAN-A3                
1 41603U 16040E   22296.55203573  .00001659  00000+0  77539-4 0  9991
2 41603  97.1954 327.9423 0014887  71.7836  82.2597 15.21029351351507
BIROS                   
1 41604U 16040F   22296.43236115  .00005281  00000+0  21191-3 0  9994
2 41604  97.1973 336.0035 0012631  47.0912 313.1384 15.25320448351960
GAOFEN 3                
1 41727U 16049A   22296.47063020  .00000062  00000+0  32166-4 0  9993
2 41727  98.4104 302.9364 0000645  67.6896 292.4367 14.42216726326541
SKYSAT-C4               
1 41771U 16058B   22295.69178479  .00010588  00000+0  27911-3 0  9995
2 41771  97.1055 357.1011 0002341 128.7082 231.4374 15.38672674340511
SKYSAT-C5               
1 41772U 16058C   22296.48254735  .00006145  00000+0  22901-3 0  9992
2 41772  97.2518 356.5708 0001940  94.2851 265.8611 15.27797088339314
SKYSAT-C2               
1 41773U 16058D   22295.73789954  .00011589  00000+0  31260-3 0  9992
2 41773  97.1071 357.5442 0000683  31.9776 328.1511 15.37941284340540
SKYSAT-C3               
1 41774U 16058E   22295.74148676  .00018250  00000+0  40892-3 0  9997
2 41774  97.1064 358.6537 0000705  49.0235 311.1075 15.43481526340615
ALSAT 1B                
1 41785U 16059C   22296.38909585  .00000317  00000+0  60572-4 0  9998
2 41785  97.8960 336.6868 0009694 171.2024 188.9351 14.70124176324615
PATHFINDER 1            
1 41787U 16059E   22296.08601950  .00000523  00000+0  10754-3 0  9997
2 41787  97.8993 334.8633 0031063 121.1991 239.2225 14.64134149324417
SCATSAT 1               
1 41790U 16059H   22295.84592766  .00000192  00000+0  59904-4 0  9991
2 41790  98.3062 338.2966 0005489 161.8984 198.2407 14.50941800321549
GOKTURK 1A              
1 41875U 16073A   22296.39576743  .00000431  00000+0  93667-4 0  9999
2 41875  98.1151 189.2860 0001344  84.4508 275.6823 14.62813206313987
RESOURCESAT-2A          
1 41877U 16074A   22296.19673502  .00000123  00000+0  75923-4 0  9994
2 41877  98.7080   9.8324 0000901  15.4006 344.7203 14.21633070304910
